QIANFAN-49              
1 62250U 24232P   25270.92415475  .00000128  00000+0  17878-3 0  9995
2 62250  88.9993  48.8728 0015537  59.0722 301.1954 13.50973753 57600
QIANFAN-50              
1 62251U 24232Q   25270.87479844  .00000208  00000+0  30400-3 0  9995
2 62251  88.9997  48.8819 0017245  60.0492 300.2369 13.50969182 57623
QIANFAN-51              
1 62252U 24232R   25270.93236245  .00000139  00000+0  19696-3 0  9996
2 62252  88.9992  48.8745 0014796  63.9116 296.3556 13.50971267 57620
QIANFAN-52              
1 62253U 24232S   25270.96115755  .00000121  00000+0  16837-3 0  9997
2 62253  88.9987  48.7481 0016640  56.1957 304.0775 13.50973752 57719
QIANFAN-53              
1 62254U 24232T   25270.94061494  .00000147  00000+0  20925-3 0  9997
2 62254  88.9996  48.8490 0015554  57.5835 302.6818 13.50969674 57679
QIANFAN-54              
1 62255U 24232U   25270.90765060  .00000124  00000+0  17381-3 0  9991
2 62255  88.9988  48.5374 0003933  96.7482 263.4117 13.50971675 89170
QIANFAN-55              
1 62785U 25016A   25271.00765378  .00000056  00000+0  68011-4 0  9995
2 62785  88.9755 111.0348 0016391 202.3588 157.6851 13.50965548 36961
QIANFAN-56              
1 62786U 25016B   25270.95016333  .00000055  00000+0  66747-4 0  9992
2 62786  88.9728 110.8977 0014994 204.6052 155.4386 13.50973568 37001
